SZ-21 DEB               
1 66515U 25246C   25323.96500413  .00023458  00000+0  27455-3 0  9992
2 66515  41.4748 154.8166 0004571  96.5474 263.5885 15.60989233   885
