CCSDS_OMM_VERS = 2.0
CREATION_DATE  = 
ORIGINATOR     = 

OBJECT_NAME    = SZ-21 DEB
OBJECT_ID      = 2025-246C
CENTER_NAME    = EARTH
REF_FRAME      = TEME
TIME_SYSTEM    = UTC
MEAN_ELEMENT_THEORY = SGP/SGP4

EPOCH          = 2025-11-19T23:09:36.356832
MEAN_MOTION    = 15.60989233
ECCENTRICITY   = .00045718
INCLINATION    = 41.4748
RA_OF_ASC_NODE = 154.8166
ARG_OF_PERICENTER = 96.5474
MEAN_ANOMALY   = 263.5885

EPHEMERIS_TYPE = 0
CLASSIFICATION_TYPE = U
NORAD_CAT_ID   = 66515
ELEMENT_SET_NO = 999
REV_AT_EPOCH   = 88
BSTAR          = .27455093E-3
MEAN_MOTION_DOT = .23458E-3
MEAN_MOTION_DDOT = 0

